0 FENGYUN 1C DEB
1 29794U 99025CL  13281.38168038  .00000358  00000-0  23081-3 0  2040
2 29794 098.2186 069.9006 0168754 102.8059 288.4562 14.01333953344269
0 FENGYUN 1C DEB
1 29794U 99025CL  13282.68475058  .00000348  00000-0  22502-3 0  2054
2 29794 098.2185 071.0752 0168671 099.1445 022.1579 14.01337270344442
0 FENGYUN 1C DEB
1 29794U 99025CL  13284.09958157  .00000459  00000-0  29047-3 0  2062
2 29794 098.2185 072.3508 0168580 095.1631 319.6870 14.01338517344642
0 FENGYUN 1C DEB
1 29794U 99025CL  13285.38463940  .00000349  00000-0  22580-3 0  2070
2 29794 098.2186 073.5092 0168496 091.5501 322.5410 14.01339778344829
0 FENGYUN 1C DEB
1 29794U 99025CL  13286.68315319  .00000476  00000-0  30027-3 0  2087
2 29794 098.2188 074.6796 0168419 087.8976 033.2875 14.01340541345005
0 FENGYUN 1C DEB
1 29794U 99025CL  13288.09783174  .00000710  00000-0  43771-3 0  2094
2 29794 098.2190 075.9548 0168336 083.9170 330.0675 14.01343598345201
0 FENGYUN 1C DEB
1 29794U 99025CL  13289.37679068  .00000519  00000-0  32586-3 0  2103
2 29794 098.2191 077.1077 0168238 080.3158 302.1833 14.01345681345381
0 FENGYUN 1C DEB
1 29794U 99025CL  13290.37840892  .00000591  00000-0  36817-3 0  2112
2 29794 098.2191 078.0107 0168161 077.4912 315.1771 14.01346669345523
0 FENGYUN 1C DEB
1 29794U 99025CL  13291.38217601  .00000597  00000-0  37123-3 0  2128
2 29794 098.2192 078.9156 0168077 074.6616 339.0153 14.01347763345663
0 FENGYUN 1C DEB
1 29794U 99025CL  13293.09589916  .00000682  00000-0  42146-3 0  2136
2 29794 098.2191 080.4604 0167939 069.8273 344.4757 14.01349069345907
0 FENGYUN 1C DEB
1 29794U 99025CL  13294.09678861  .00000665  00000-0  41141-3 0  2141
2 29794 098.2190 081.3627 0167853 067.0026 353.8086 14.01350724346047
0 FENGYUN 1C DEB
1 29794U 99025CL  13295.38049652  .00000713  00000-0  43957-3 0  2156
2 29794 098.2188 082.5200 0167733 063.3698 349.9350 14.01352683346221
